TJS-7                   
1 49115U 21077A   26201.24217574 -.00000126  00000+0  00000+0 0  9998
2 49115   0.2709 263.6876 0002972 114.9944 267.0103  1.00273091  9887
CHINASAT 9B             
1 49125U 21080A   26200.28400166 -.00000318  00000+0  00000+0 0  9990
2 49125   0.0483 243.8032 0002643 254.2183   2.6909  1.00273340 17970
SHIJIAN-21 (SJ-21)      
1 49330U 21094A   26201.31437978 -.00000352  00000+0  00000+0 0  9997
2 49330   5.1895  60.9780 0051479 168.8997 309.3805  1.00276013  5691
SES-17                  
1 49332U 21095A   26201.24858911 -.00000274  00000+0  00000+0 0  9999
2 49332   0.0231  51.4017 0000987  61.3048 207.7077  1.00269965 18189
SYRACUSE 4A             
1 49333U 21095B   26201.27094921  .00000000  00000+0  00000+0 0  9992
2 49333   0.0186  61.1508 0001487  54.4029 325.5473  1.00270151 18278
QZS-1R (MICHIBIKI-1R)   
1 49336U 21096A   26200.56101544 -.00000322  00000+0  00000+0 0  9995
2 49336  37.5263  79.1015 0755512 272.3091 279.1178  1.00244085 17338
ZHONGXING-1D            
1 49505U 21114A   26199.71941707 -.00000344  00000+0  00000+0 0  9995
2 49505   0.0250 226.0905 0000619  24.7402  74.7947  1.00266793 17135
STPSAT-6                
1 49817U 21118A   26201.23974906 -.00000047  00000+0  00000+0 0  9993
2 49817   0.4041  85.0978 0000875 254.6312 292.7856  1.00270900 16904
EXPRESS AMU-7           
1 50001U 21123A   26201.14791490 -.00000245  00000+0  00000+0 0  9991
2 50001   0.0183 305.3932 0000394   6.5699 184.2146  1.00272331 16873
EXPRESS AMU-3           
1 50002U 21123B   26199.89002957  .00000000  00000+0  00000+0 0  9991
2 50002   0.0134   9.2566 0000371 290.7391  60.0006  1.00270141  7350
TIANLIAN 2-02           
1 50005U 21124A   26201.29411167 -.00000017  00000+0  00000+0 0  9999
2 50005   0.8856  85.6215 0001517 159.2386 330.0425  1.00271828 16951
TURKSAT 5B              
1 50212U 21126A   26201.27025587  .00000144  00000+0  00000+0 0  9996
2 50212   0.0709 337.6409 0002277  17.9900  81.6901  1.00270917 16632
INMARSAT 6-F1           
1 50319U 21128A   26201.19350164  .00000000  00000+0  00000+0 0  9990
2 50319   0.0170  47.5254 0000332  43.0294   0.8352  1.00270258 16599
SHIYAN-12 01 (SY-12 01) 
1 50321U 21129A   26199.80623808  .00000139  00000+0  00000+0 0  9999
2 50321   3.7543  79.4846 0002602 289.2178 252.5659  1.00053356 16813
SHIYAN-12 02 (SY-12 02) 
1 50322U 21129B   26199.82512846 -.00000370  00000+0  00000+0 0  9999
2 50322   3.7534  79.4840 0003171  68.1169 199.1085  1.00475714 16819
TJS-9                   
1 50574U 21135A   26201.28906262 -.00000301  00000+0  00000+0 0  9992
2 50574   0.0582 100.5311 0002218 332.4355 106.4057  1.00270701 16768
GOES 18                 
1 51850U 22021A   26201.23933602  .00000095  00000+0  00000+0 0  9997
2 51850   0.0173 100.0818 0000375  34.3815 112.7065  1.00272468  6928
ZHONGXING-6D            
1 52255U 22038A   26200.82623838  .00000000  00000+0  00000+0 0  9992
2 52255   0.0040  93.2883 0000886  96.2543 170.4558  1.00267675 15751
NILESAT 301             
1 52817U 22061A   26201.18925306 -.00000060  00000+0  00000+0 0  9994
2 52817   0.0466  13.5367 0003625  70.0970 275.4515  1.00270488 15066
CMS-02 (GSAT-24)        
1 52903U 22067A   26201.06450120 -.00000167  00000+0  00000+0 0  9998
2 52903   0.0542 249.8391 0000844 113.1860  41.0234  1.00272793 14936
MEASAT 3D               
1 52904U 22067B   26201.13742819 -.00000244  00000+0  00000+0 0  9992
2 52904   0.0341 330.5859 0000512  69.5391  38.7571  1.00270390 14989
SES-22                  
1 52933U 22071A   26201.22643971  .00000102  00000+0  00000+0 0  9990
2 52933   0.0406 252.9566 0000984 216.2754 131.2800  1.00273539  7852
WFOV (USA 332)          
1 52940U 22073A   26201.21421316 -.00000366  00000+0  00000+0 0  9999
2 52940   3.7936  78.1112 0000921 186.4364 229.8481  1.00275240 14701
TIANLIAN 2-03           
1 53100U 22078A   26201.26401584  .00000069  00000+0  00000+0 0  9992
2 53100   0.7524  77.5325 0000739  22.5411 303.6270  1.00269546 14876
SBIRS GEO-6 (USA 336)   
1 53355U 22092A   26201.28940928 -.00000292  00000+0  00000+0 0  9991
2 53355   3.2028 318.0443 0001904 153.2521  69.9510  1.00271334 14561
EUTELSAT KONNECT VHTS   
1 53765U 22110A   26201.26245583  .00000015  00000+0  00000+0 0  9992
2 53765   0.0555  99.9554 0002824 348.5872 306.6786  1.00269600  7161
ZHONGXING-1E            
1 53813U 22112A   26200.85030855 -.00000153  00000+0  00000+0 0  9990
2 53813   0.0508 237.8681 0000681  28.6591  58.6259  1.00272691 14172
SES-20                  
1 53960U 22123A   26201.30316271 -.00000103  00000+0  00000+0 0  9990
2 53960   0.0149  70.5265 0002036  22.6362 210.9443  1.00269983 13865
SES-21                  
1 53961U 22123B   26201.23593572  .00000000  00000+0  00000+0 0  9999
2 53961   0.0368  41.1485 0018188   5.3458 205.6439  1.00611186  7546
GALAXY 33 (G-33)        
1 54026U 22128A   26201.23558905  .00000077  00000+0  00000+0 0  9992
2 54026   0.0212 307.3098 0001864 184.2285 118.2643  1.00269948 14079
GALAXY 34 (G-34)        
1 54027U 22128B   26201.13315844  .00000000  00000+0  00000+0 0  9991
2 54027   0.0162  50.6641 0001707  82.0286  84.1684  1.00271722 14246
ANGOSAT 2               
1 54033U 22131A   26199.93239134  .00000129  00000+0  00000+0 0  9995
2 54033   0.0174 128.6584 0000157 338.4700 188.2547  1.00273970 13795
