OBJECT_NAME,OBJECT_ID,EPOCH,MEAN_MOTION,ECCENTRICITY,INCLINATION,RA_OF_ASC_NODE,ARG_OF_PERICENTER,MEAN_ANOMALY,EPHEMERIS_TYPE,CLASSIFICATION_TYPE,NORAD_CAT_ID,ELEMENT_SET_NO,REV_AT_EPOCH,BSTAR,MEAN_MOTION_DOT,MEAN_MOTION_DDOT
TJS-7,2021-077A,2026-07-20T05:48:43.983936,1.00273091,.00029721,0.2709,263.6876,114.9944,267.0103,0,U,49115,999,988,0,-.126E-5,0
CHINASAT 9B,2021-080A,2026-07-19T06:48:57.743424,1.00273340,.00026437,0.0483,243.8032,254.2183,2.6909,0,U,49125,999,1797,0,-.318E-5,0
SHIJIAN-21 (SJ-21),2021-094A,2026-07-20T07:32:42.412992,1.00276013,.00514795,5.1895,60.9780,168.8997,309.3805,0,U,49330,999,569,0,-.352E-5,0
SES-17,2021-095A,2026-07-20T05:57:58.099104,1.00269965,.00009879,0.0231,51.4017,61.3048,207.7077,0,U,49332,999,1818,0,-.274E-5,0
SYRACUSE 4A,2021-095B,2026-07-20T06:30:10.011744,1.00270151,.00014876,0.0186,61.1508,54.4029,325.5473,0,U,49333,999,1827,0,0,0
QZS-1R (MICHIBIKI-1R),2021-096A,2026-07-19T13:27:51.734016,1.00244085,.07555125,37.5263,79.1015,272.3091,279.1178,0,U,49336,999,1733,0,-.322E-5,0
ZHONGXING-1D,2021-114A,2026-07-18T17:15:57.634848,1.00266793,.00006199,0.0250,226.0905,24.7402,74.7947,0,U,49505,999,1713,0,-.344E-5,0
STPSAT-6,2021-118A,2026-07-20T05:45:14.318784,1.00270900,.00008756,0.4041,85.0978,254.6312,292.7856,0,U,49817,999,1690,0,-.47E-6,0
EXPRESS AMU-7,2021-123A,2026-07-20T03:32:59.847360,1.00272331,.00003942,0.0183,305.3932,6.5699,184.2146,0,U,50001,999,1687,0,-.245E-5,0
EXPRESS AMU-3,2021-123B,2026-07-18T21:21:38.554848,1.00270141,.00003714,0.0134,9.2566,290.7391,60.0006,0,U,50002,999,735,0,0,0
TIANLIAN 2-02,2021-124A,2026-07-20T07:03:31.248288,1.00271828,.00015172,0.8856,85.6215,159.2386,330.0425,0,U,50005,999,1695,0,-.17E-6,0
TURKSAT 5B,2021-126A,2026-07-20T06:29:10.107168,1.00270917,.00022776,0.0709,337.6409,17.9900,81.6901,0,U,50212,999,1663,0,.144E-5,0
INMARSAT 6-F1,2021-128A,2026-07-20T04:38:38.541696,1.00270258,.00003329,0.0170,47.5254,43.0294,0.8352,0,U,50319,999,1659,0,0,0
SHIYAN-12 01 (SY-12 01),2021-129A,2026-07-18T19:20:58.970112,1.00053356,.0002602,3.7543,79.4846,289.2178,252.5659,0,U,50321,999,1681,0,.139E-5,0
SHIYAN-12 02 (SY-12 02),2021-129B,2026-07-18T19:48:11.098944,1.00475714,.0003171,3.7534,79.4840,68.1169,199.1085,0,U,50322,999,1681,0,-.37E-5,0
TJS-9,2021-135A,2026-07-20T06:56:15.010368,1.00270701,.00022186,0.0582,100.5311,332.4355,106.4057,0,U,50574,999,1676,0,-.301E-5,0
GOES 18,2022-021A,2026-07-20T05:44:38.632128,1.00272468,.00003752,0.0173,100.0818,34.3815,112.7065,0,U,51850,999,692,0,.95E-6,0
ZHONGXING-6D,2022-038A,2026-07-19T19:49:46.996032,1.00267675,.00008865,0.0040,93.2883,96.2543,170.4558,0,U,52255,999,1575,0,0,0
NILESAT 301,2022-061A,2026-07-20T04:32:31.464384,1.00270488,.00036251,0.0466,13.5367,70.0970,275.4515,0,U,52817,999,1506,0,-.6E-6,0
CMS-02 (GSAT-24),2022-067A,2026-07-20T01:32:52.903680,1.00272793,.00008445,0.0542,249.8391,113.1860,41.0234,0,U,52903,999,1493,0,-.167E-5,0
MEASAT 3D,2022-067B,2026-07-20T03:17:53.795616,1.00270390,.00005128,0.0341,330.5859,69.5391,38.7571,0,U,52904,999,1498,0,-.244E-5,0
SES-22,2022-071A,2026-07-20T05:26:04.390944,1.00273539,.00009847,0.0406,252.9566,216.2754,131.2800,0,U,52933,999,785,0,.102E-5,0
WFOV (USA 332),2022-073A,2026-07-20T05:08:28.017024,1.00275240,.00009217,3.7936,78.1112,186.4364,229.8481,0,U,52940,999,1470,0,-.366E-5,0
TIANLIAN 2-03,2022-078A,2026-07-20T06:20:10.968576,1.00269546,.00007398,0.7524,77.5325,22.5411,303.6270,0,U,53100,999,1487,0,.69E-6,0
SBIRS GEO-6 (USA 336),2022-092A,2026-07-20T06:56:44.961792,1.00271334,.00019045,3.2028,318.0443,153.2521,69.9510,0,U,53355,999,1456,0,-.292E-5,0
EUTELSAT KONNECT VHTS,2022-110A,2026-07-20T06:17:56.183712,1.00269600,.00028241,0.0555,99.9554,348.5872,306.6786,0,U,53765,999,716,0,.15E-6,0
ZHONGXING-1E,2022-112A,2026-07-19T20:24:26.658720,1.00272691,.00006813,0.0508,237.8681,28.6591,58.6259,0,U,53813,999,1417,0,-.153E-5,0
SES-20,2022-123A,2026-07-20T07:16:33.258144,1.00269983,.00020365,0.0149,70.5265,22.6362,210.9443,0,U,53960,999,1386,0,-.103E-5,0
SES-21,2022-123B,2026-07-20T05:39:44.846208,1.00611186,.00181884,0.0368,41.1485,5.3458,205.6439,0,U,53961,999,754,0,0,0
GALAXY 33 (G-33),2022-128A,2026-07-20T05:39:14.893920,1.00269948,.00018648,0.0212,307.3098,184.2285,118.2643,0,U,54026,999,1407,0,.77E-6,0
GALAXY 34 (G-34),2022-128B,2026-07-20T03:11:44.889216,1.00271722,.00017071,0.0162,50.6641,82.0286,84.1684,0,U,54027,999,1424,0,0,0
ANGOSAT 2,2022-131A,2026-07-18T22:22:38.611776,1.00273970,.00001575,0.0174,128.6584,338.4700,188.2547,0,U,54033,999,1379,0,.129E-5,0
